{"type": "FeatureCollection", "crs": {"type": "name", "properties": {"name": "EPSG:4326"}}, "features": [{"type": "Feature", "geometry": {"type": "MultiPolygon", "coordinates": [[[[-0.0968, 51.5233], [-0.0951, 51.5231], [-0.0943, 51.5215], [-0.0897, 51.5207], [-0.09, 51.52], [-0.0862, 51.5188], [-0.0852, 51.5203], [-0.0831, 51.5199], [-0.081, 51.522], [-0.0785, 51.5215], [-0.0794, 51.5189], [-0.0781, 51.519], [-0.074, 51.5145], [-0.0728, 51.5102], [-0.0779, 51.5101], [-0.0795, 51.5078], [-0.0952, 51.5106], [-0.1115, 51.5108], [-0.1125, 51.5127], [-0.1111, 51.5138], [-0.1138, 51.5183], [-0.1078, 51.5178], [-0.0977, 51.5207], [-0.0979, 51.5229], [-0.0968, 51.5233]]]]}, "properties": {"slug": "city_of_london", "name": "City of London", "code": "E09000001"}}, {"type": "Feature", "geometry": {"type": "MultiPolygon", "coordinates": [[[[0.071, 51.5371], [0.0757, 51.5298], [0.0727, 51.5293], [0.0695, 51.5363], [0.068, 51.5362], [0.0689, 51.5372], [0.0667, 51.5406], [0.0684, 51.5444], [0.0693, 51.5442], [0.0685, 51.5407], [0.0694, 51.5403], [0.0691, 51.5388], [0.071, 51.5371]]], [[[0.1482, 51.5968], [0.1499, 51.597], [0.1511, 51.5955], [0.151, 51.5838], [0.1486, 51.5808], [0.1475, 51.5808], [0.147, 51.5757], [0.148, 51.5758], [0.1479, 51.5731], [0.149, 51.5731], [0.1497, 51.5697], [0.1467, 51.5688], [0.1513, 51.5681], [0.1619, 51.5616], [0.1734, 51.5651], [0.1835, 51.5646], [0.1852, 51.5655], [0.1827, 51.5612], [0.1848, 51.5599], [0.1848, 51.5564], [0.1869, 51.5558], [0.1902, 51.5527], [0.186, 51.5475], [0.1804, 51.5441], [0.1792, 51.5403], [0.1751, 51.5385], [0.1708, 51.5326], [0.1644, 51.527], [0.1588, 51.5123], [0.1466, 51.5141], [0.1363, 51.5186], [0.1267, 51.5196], [0.119, 51.5181], [0.1088, 51.5142], [0.1011, 51.5145], [0.0956, 51.517], [0.0957, 51.5201], [0.0928, 51.5226], [0.0933, 51.5247], [0.0922, 51.5267], [0.0858, 51.526], [0.0764, 51.5298], [0.0705, 51.5391], [0.0695, 51.539], [0.0697, 51.5441], [0.078, 51.5441], [0.0859, 51.5473], [0.0915, 51.5483], [0.0926, 51.5496], [0.0935, 51.5459], [0.1043, 51.5498], [0.1084, 51.5527], [0.1119, 51.5527], [0.1147, 51.5553], [0.1127, 51.5565], [0.1133, 51.5573], [0.1171, 51.5569], [0.1205, 51.5586], [0.1175, 51.5592], [0.1197, 51.5625], [0.1191, 51.5631], [0.1293, 51.5665], [0.1299, 51.5715], [0.1316, 51.5718], [0.1294, 51.5739], [0.1292, 51.5763], [0.1316, 51.5771], [0.1308, 51.5794], [0.1336, 51.58], [0.1326, 51.5813], [0.1278, 51.5816], [0.1264, 51.5867], [0.131, 51.5875], [0.1296, 51.59], [0.1466, 51.5994], [0.1482, 51.599], [0.1482, 51.5968]]]]}, "properties": {"slug": "barking_dagenham", "name": "Barking and Dagenham", "code": "E09000002"}}, {"type": "Feature", "geometry": {"type": "Polygon", "coordinates": [[[-0.199, 51.6682], [-0.1949, 51.6683], [-0.1967, 51.6655], [-0.1911, 51.6639], [-0.1878, 51.6679], [-0.182, 51.6687], [-0.1859, 51.6628], [-0.1547, 51.6555], [-0.1523, 51.6498], [-0.1509, 51.6501], [-0.1499, 51.6488], [-0.1522, 51.648], [-0.1511, 51.6472], [-0.1516, 51.6453], [-0.1492, 51.6453], [-0.1478, 51.6421], [-0.145, 51.6426], [-0.1402, 51.6375], [-0.1333, 51.6333], [-0.1291, 51.6323], [-0.1354, 51.6218], [-0.142, 51.6163], [-0.1445, 51.6155], [-0.1387, 51.6102], [-0.1434, 51.6088], [-0.142, 51.6037], [-0.1445, 51.6001], [-0.1513, 51.5975], [-0.1529, 51.5992], [-0.1534, 51.6028], [-0.1563, 51.6054], [-0.1618, 51.5975], [-0.1597, 51.5922], [-0.1587, 51.592], [-0.1602, 51.588], [-0.1586, 51.588], [-0.1587, 51.5866], [-0.1571, 51.5862], [-0.1596, 51.5845], [-0.1613, 51.5853], [-0.1657, 51.5832], [-0.167, 51.5818], [-0.1668, 51.5787], [-0.1681, 51.5769], [-0.1693, 51.5774], [-0.1694, 51.574], [-0.1712, 51.5736], [-0.1744, 51.5693], [-0.1781, 51.5705], [-0.1896, 51.5652], [-0.1911, 51.5617], [-0.1967, 51.5607], [-0.1968, 51.5592], [-0.1983, 51.5589], [-0.1994, 51.5562], [-0.2058, 51.5553], [-0.206, 51.5564], [-0.2088, 51.5557], [-0.21, 51.5568], [-0.2135, 51.5552], [-0.2334, 51.572], [-0.246, 51.5722], [-0.2465, 51.569], [-0.2486, 51.5685], [-0.2525, 51.5715], [-0.2531, 51.5724], [-0.2513, 51.5732], [-0.2545, 51.5798], [-0.2543, 51.5817], [-0.2482, 51.5843], [-0.2874, 51.617], [-0.3045, 51.632], [-0.3056, 51.6341], [-0.3038, 51.6365], [-0.2961, 51.6354], [-0.2814, 51.6383], [-0.2737, 51.6387], [-0.2729, 51.6421], [-0.2682, 51.6424], [-0.2683, 51.6438], [-0.2644, 51.6436], [-0.2633, 51.6448], [-0.2607, 51.6427], [-0.2574, 51.6418], [-0.2562, 51.6435], [-0.2545, 51.6437], [-0.2516, 51.648], [-0.2499, 51.6546], [-0.2513, 51.6555], [-0.2506, 51.6561], [-0.2479, 51.6552], [-0.2367, 51.6588], [-0.2342, 51.6583], [-0.2289, 51.66], [-0.2265, 51.6572], [-0.2198, 51.6607], [-0.2189, 51.6601], [-0.2134, 51.6624], [-0.2121, 51.6614], [-0.2079, 51.6629], [-0.2111, 51.667], [-0.2098, 51.6676], [-0.208, 51.6666], [-0.2056, 51.6686], [-0.2022, 51.6678], [-0.2034, 51.6701], [-0.1999, 51.6702], [-0.199, 51.6682]]]}, "properties": {"slug": "barnet", "name": "Barnet", "code": "E09000003"}}, {"type": "Feature", "geometry": {"type": "MultiPolygon", "coordinates": [[[[0.1322, 51.5123], [0.1495, 51.5059], [0.1603, 51.5055], [0.1666, 51.5035], [0.1716, 51.4977], [0.1725, 51.4888], [0.1779, 51.483], [0.1905, 51.479], [0.1989, 51.4794], [0.1974, 51.4784], [0.2006, 51.4801], [0.1986, 51.4783], [0.2021, 51.479], [0.2019, 51.4802], [0.2032, 51.4803], [0.2023, 51.4806], [0.2048, 51.4808], [0.2029, 51.4796], [0.2117, 51.4827], [0.2177, 51.4804], [0.216, 51.4795], [0.2164, 51.4775], [0.2119, 51.4758], [0.2114, 51.4732], [0.2082, 51.4708], [0.211, 51.4684], [0.2102, 51.4625], [0.2026, 51.4583], [0.1991, 51.4586], [0.1973, 51.4576], [0.203, 51.458], [0.2034, 51.4543], [0.1991, 51.4521], [0.1931, 51.4517], [0.191, 51.4488], [0.1876, 51.4487], [0.1874, 51.4469], [0.1842, 51.4446], [0.176, 51.442], [0.1728, 51.4433], [0.1667, 51.4351], [0.1667, 51.4313], [0.1642, 51.4285], [0.1559, 51.4309], [0.1538, 51.4275], [0.1531, 51.4223], [0.1512, 51.4204], [0.1546, 51.4185], [0.1511, 51.4176], [0.1512, 51.4151], [0.1492, 51.4124], [0.1538, 51.4113], [0.1529, 51.4087], [0.1489, 51.4084], [0.1328, 51.4142], [0.1283, 51.415], [0.1131, 51.4129], [0.1076, 51.4141], [0.0951, 51.4201], [0.0892, 51.424], [0.0832, 51.4299], [0.0747, 51.4321], [0.0765, 51.4349], [0.075, 51.4359], [0.0778, 51.4364], [0.0809, 51.4404], [0.0818, 51.44], [0.0845, 51.442], [0.083, 51.4434], [0.0847, 51.4426], [0.0874, 51.4433], [0.0864, 51.4453], [0.0881, 51.4473], [0.0857, 51.4565], [0.0787, 51.4593], [0.0829, 51.4598], [0.0823, 51.4666], [0.0932, 51.473], [0.0966, 51.4733], [0.0982, 51.4755], [0.102, 51.4745], [0.1082, 51.4761], [0.112, 51.4731], [0.1185, 51.4789], [0.1242, 51.4768], [0.122, 51.483], [0.1202, 51.5114], [0.1251, 51.513], [0.1322, 51.5123]]]]}, "properties": {"slug": "bexley", "name": "Bexley", "code": "E09000004"}}, {"type": "Feature", "geometry": {"type": "Polygon", "coordinates": [[[-0.2623, 51.5963], [-0.2482, 51.5843], [-0.2543, 51.5817], [-0.2545, 51.5798], [-0.2513, 51.5732], [-0.2531, 51.5724], [-0.2525, 51.5715], [-0.2486, 51.5685], [-0.2465, 51.569], [-0.246, 51.5722], [-0.2355, 51.5725], [-0.2255, 51.5659], [-0.1915, 51.5363], [-0.193, 51.532], [-0.1965, 51.5276], [-0.1978, 51.5279], [-0.1982, 51.5304], [-0.203, 51.5329], [-0.2153, 51.5314], [-0.216, 51.5279], [-0.2277, 51.5299], [-0.2344, 51.5326], [-0.2432, 51.5318], [-0.2508, 51.5341], [-0.256, 51.5339], [-0.2577, 51.5354], [-0.2686, 51.5298], [-0.2804, 51.5283], [-0.2857, 51.5292], [-0.2894, 51.5317], [-0.284, 51.5335], [-0.281, 51.5326], [-0.279, 51.5332], [-0.2778, 51.5351], [-0.2825, 51.5386], [-0.2934, 51.5349], [-0.2964, 51.5353], [-0.3027, 51.532], [-0.3075, 51.5331], [-0.3063, 51.5342], [-0.3059, 51.5394], [-0.3047, 51.5399], [-0.3085, 51.5432], [-0.308, 51.5444], [-0.3089, 51.5452], [-0.3071, 51.5453], [-0.3177, 51.5516], [-0.327, 51.555], [-0.3356, 51.5566], [-0.3313, 51.5614], [-0.3282, 51.5625], [-0.3287, 51.566], [-0.3298, 51.5671], [-0.3221, 51.5697], [-0.3248, 51.5733], [-0.3266, 51.5786], [-0.3047, 51.5871], [-0.2825, 51.5851], [-0.2842, 51.5905], [-0.2904, 51.5935], [-0.2765, 51.5965], [-0.2671, 51.6004], [-0.2623, 51.5963]]]}, "properties": {"slug": "brent", "name": "Brent", "code": "E09000005"}}, {"type": "Feature", "geometry": {"type": "Polygon", "coordinates": [[[0.0451, 51.4362], [0.0582, 51.4249], [0.061, 51.4251], [0.0617, 51.4237], [0.0717, 51.4294], [0.0734, 51.4318], [0.0749, 51.4308], [0.0754, 51.432], [0.0832, 51.4299], [0.0892, 51.424], [0.0951, 51.4201], [0.1076, 51.4141], [0.1131, 51.4129], [0.1283, 51.415], [0.1328, 51.4142], [0.1489, 51.4084], [0.1552, 51.404], [0.159, 51.3958], [0.1624, 51.3925], [0.1477, 51.3928], [0.1498, 51.3909], [0.1487, 51.3887], [0.1505, 51.386], [0.1496, 51.3801], [0.1532, 51.378], [0.1525, 51.3752], [0.1496, 51.3736], [0.1512, 51.3722], [0.1501, 51.3702], [0.1521, 51.3697], [0.1516, 51.3684], [0.1494, 51.3692], [0.1473, 51.367], [0.1483, 51.3664], [0.1445, 51.3611], [0.1454, 51.3603], [0.1448, 51.3584], [0.1459, 51.3582], [0.1451, 51.3558], [0.1426, 51.3507], [0.1387, 51.3475], [0.1394, 51.347], [0.1362, 51.3459], [0.137, 51.3442], [0.1252, 51.3459], [0.1185, 51.3441], [0.1167, 51.3413], [0.1173, 51.3398], [0.1185, 51.34], [0.12, 51.3347], [0.1217, 51.3336], [0.1179, 51.3296], [0.1157, 51.3295], [0.1142, 51.3274], [0.1102, 51.328], [0.1098, 51.3267], [0.1049, 51.3274], [0.1008, 51.3256], [0.0962, 51.3213], [0.0878, 51.3183], [0.085, 51.316], [0.0851, 51.3126], [0.0836, 51.3105], [0.0849, 51.306], [0.0828, 51.3056], [0.0862, 51.3002], [0.0912, 51.2968], [0.0857, 51.2931], [0.0816, 51.2918], [0.0585, 51.2894], [0.0561, 51.2924], [0.0544, 51.2921], [0.0508, 51.294], [0.0457, 51.294], [0.0424, 51.2927], [0.0443, 51.2986], [0.0431, 51.2991], [0.0426, 51.3013], [0.0415, 51.303], [0.0329, 51.3075], [0.0248, 51.3022], [0.021, 51.2968], [0.0191, 51.2917], [0.015, 51.2918], [0.0084, 51.3106], [0.0104, 51.3161], [0.0066, 51.3157], [0.0023, 51.3291], [0.0033, 51.3322], [0.0009, 51.3336], [-0.0053, 51.3526], [-0.0086, 51.3558], [-0.0156, 51.3588], [-0.0223, 51.3659], [-0.0236, 51.3653], [-0.0245, 51.3668], [-0.0231, 51.367], [-0.0236, 51.3722], [-0.0268, 51.3794], [-0.0298, 51.3773], [-0.0368, 51.377], [-0.0364, 51.379], [-0.0378, 51.3833], [-0.0365, 51.3884], [-0.0428, 51.3895], [-0.0481, 51.3931], [-0.0535, 51.3949], [-0.0504, 51.398], [-0.0521, 51.3983], [-0.0506, 51.3995], [-0.0529, 51.4014], [-0.0605, 51.3991], [-0.0622, 51.4015], [-0.0686, 51.4038], [-0.0728, 51.4085], [-0.0735, 51.4106], [-0.0727, 51.4127], [-0.0804, 51.4155], [-0.0811, 51.4173], [-0.0739, 51.4262], [-0.0624, 51.4252], [-0.0568, 51.423], [-0.0518, 51.4236], [-0.0517, 51.4225], [-0.0463, 51.4224], [-0.041, 51.4243], [-0.0385, 51.424], [-0.0375, 51.425], [-0.0318, 51.4247], [-0.032, 51.4255], [-0.0301, 51.4256], [-0.021, 51.421], [-0.0214, 51.4183], [-0.0226, 51.4176], [-0.021, 51.416], [-0.0143, 51.4152], [-0.0142, 51.4136], [-0.0103, 51.4136], [-0.0066, 51.4147], [-0.0066, 51.416], [-0.005, 51.4146], [-0.0007, 51.4159], [0.0017, 51.4186], [0.0035, 51.4174], [0.0057, 51.4185], [0.0052, 51.4194], [0.0081, 51.423], [0.01, 51.4225], [0.0144, 51.4252], [0.0141, 51.4262], [0.0212, 51.4269], [0.0255, 51.429], [0.0362, 51.4224], [0.0391, 51.4247], [0.0378, 51.4278], [0.0377, 51.4333], [0.0337, 51.4317], [0.0312, 51.4321], [0.0286, 51.434], [0.0287, 51.4364], [0.0254, 51.4357], [0.0248, 51.4382], [0.0288, 51.4388], [0.0305, 51.4443], [0.0398, 51.441], [0.0451, 51.4362]]]}, "properties": {"slug": "bromley", "name": "Bromley", "code": "E09000006"}}, {"type": "Feature", "geometry": {"type": "Polygon", "coordinates": [[[-0.1673, 51.573], [-0.1501, 51.5716], [-0.1424, 51.5691], [-0.1406, 51.5645], [-0.141, 51.5605], [-0.137, 51.5553], [-0.131, 51.5515], [-0.1301, 51.5496], [-0.1271, 51.5475], [-0.1251, 51.5411], [-0.1224, 51.537], [-0.1226, 51.5308], [-0.1159, 51.5298], [-0.1155, 51.5278], [-0.1129, 51.5264], [-0.1142, 51.5255], [-0.1136, 51.5246], [-0.107, 51.5222], [-0.1053, 51.5186], [-0.1078, 51.5178], [-0.1138, 51.5183], [-0.1116, 51.5153], [-0.1138, 51.5148], [-0.1147, 51.516], [-0.1195, 51.5145], [-0.1229, 51.5151], [-0.1276, 51.5127], [-0.1296, 51.514], [-0.1308, 51.5171], [-0.1325, 51.5167], [-0.1352, 51.5189], [-0.137, 51.5189], [-0.1434, 51.5245], [-0.1452, 51.524], [-0.1458, 51.5253], [-0.1471, 51.525], [-0.1527, 51.5375], [-0.1594, 51.5363], [-0.1604, 51.5373], [-0.1649, 51.5358], [-0.1694, 51.5386], [-0.1735, 51.5376], [-0.1739, 51.5395], [-0.1783, 51.5398], [-0.1842, 51.5382], [-0.1887, 51.5345], [-0.2135, 51.5552], [-0.21, 51.5568], [-0.2088, 51.5557], [-0.206, 51.5564], [-0.2058, 51.5553], [-0.1994, 51.5562], [-0.1983, 51.5589], [-0.1968, 51.5592], [-0.1967, 51.5607], [-0.1911, 51.5617], [-0.1896, 51.5652], [-0.181, 51.5697], [-0.1781, 51.5705], [-0.1744, 51.5693], [-0.1712, 51.5724], [-0.1673, 51.573]]]}, "properties": {"slug": "camden", "name": "Camden", "code": "E09000007"}}, {"type": "Feature", "geometry": {"type": "Polygon", "coordinates": [[[-0.1093, 51.4232], [-0.0927, 51.4226], [-0.0863, 51.4193], [-0.0786, 51.4199], [-0.0811, 51.4173], [-0.0808, 51.416], [-0.0727, 51.4127], [-0.0735, 51.4106], [-0.0728, 51.4085], [-0.0686, 51.4038], [-0.0622, 51.4015], [-0.0605, 51.3991], [-0.0529, 51.4014], [-0.0506, 51.3995], [-0.0521, 51.3983], [-0.0504, 51.398], [-0.0535, 51.3949], [-0.0481, 51.3931], [-0.0428, 51.3895], [-0.0365, 51.3884], [-0.0378, 51.3833], [-0.0364, 51.379], [-0.0368, 51.377], [-0.0298, 51.3773], [-0.0268, 51.3794], [-0.0236, 51.3722], [-0.0231, 51.367], [-0.0245, 51.3668], [-0.0236, 51.3653], [-0.0223, 51.3659], [-0.0156, 51.3588], [-0.0086, 51.3558], [-0.0053, 51.3526], [0.0009, 51.3336], [0.0033, 51.3322], [0.0023, 51.3291], [-0.0005, 51.3288], [-0.0071, 51.3337], [-0.0097, 51.3339], [-0.0136, 51.3315], [-0.0143, 51.3298], [-0.0222, 51.3381], [-0.0328, 51.3374], [-0.0379, 51.3387], [-0.042, 51.3339], [-0.0503, 51.3326], [-0.0511, 51.3308], [-0.0487, 51.3287], [-0.0479, 51.3252], [-0.0498, 51.3253], [-0.0513, 51.3225], [-0.064, 51.3186], [-0.0701, 51.3189], [-0.071, 51.3212], [-0.0789, 51.3198], [-0.0788, 51.3181], [-0.0848, 51.3159], [-0.0819, 51.3126], [-0.0819, 51.3106], [-0.0888, 51.3072], [-0.0887, 51.3051], [-0.0912, 51.3034], [-0.0912, 51.3015], [-0.0973, 51.3011], [-0.0943, 51.2994], [-0.1111, 51.2923], [-0.1147, 51.2925], [-0.1178, 51.2872], [-0.1243, 51.2868], [-0.1303, 51.2929], [-0.131, 51.2955], [-0.1344, 51.2984], [-0.1362, 51.2983], [-0.1372, 51.3007], [-0.1409, 51.2996], [-0.1436, 51.3012], [-0.1456, 51.2998], [-0.1553, 51.3013], [-0.1577, 51.3044], [-0.1545, 51.3064], [-0.1572, 51.3067], [-0.1543, 51.3103], [-0.1583, 51.311], [-0.1572, 51.3134], [-0.1596, 51.3171], [-0.1612, 51.3175], [-0.1619, 51.3196], [-0.1527, 51.323], [-0.1507, 51.3222], [-0.1456, 51.3235], [-0.1444, 51.3265], [-0.1492, 51.3288], [-0.1441, 51.3307], [-0.1456, 51.3325], [-0.1475, 51.3388], [-0.1435, 51.3405], [-0.1442, 51.3423], [-0.1369, 51.3447], [-0.1325, 51.3443], [-0.1329, 51.3454], [-0.1283, 51.3475], [-0.1273, 51.3471], [-0.1269, 51.3449], [-0.1168, 51.3458], [-0.1214, 51.3577], [-0.1242, 51.3574], [-0.1246, 51.3584], [-0.1219, 51.3591], [-0.1229, 51.3599], [-0.1218, 51.36], [-0.1209, 51.3633], [-0.1213, 51.3647], [-0.1241, 51.3654], [-0.1221, 51.3658], [-0.1248, 51.3737], [-0.1278, 51.3747], [-0.1258, 51.3756], [-0.128, 51.3805], [-0.1303, 51.3822], [-0.1286, 51.3825], [-0.1295, 51.3853], [-0.1288, 51.3856], [-0.1306, 51.3863], [-0.1296, 51.3872], [-0.1343, 51.3908], [-0.1287, 51.3935], [-0.1297, 51.3937], [-0.1241, 51.3976], [-0.1304, 51.4033], [-0.1323, 51.4068], [-0.1321, 51.4092], [-0.1295, 51.4096], [-0.1277, 51.4123], [-0.1225, 51.415], [-0.1198, 51.4188], [-0.1126, 51.4232], [-0.1093, 51.4232]]]}, "properties": {"slug": "croydon", "name": "Croydon", "code": "E09000008"}}, {"type": "Feature", "geometry": {"type": "Polygon", "coordinates": [[[-0.327, 51.555], [-0.3177, 51.5516], [-0.3071, 51.5453], [-0.3089, 51.5452], [-0.308, 51.5444], [-0.3085, 51.5432], [-0.3047, 51.5399], [-0.3059, 51.5394], [-0.3063, 51.5342], [-0.3075, 51.5331], [-0.3027, 51.532], [-0.2964, 51.5353], [-0.2934, 51.5349], [-0.2825, 51.5386], [-0.2778, 51.5351], [-0.279, 51.5332], [-0.281, 51.5326], [-0.284, 51.5335], [-0.2894, 51.5317], [-0.2857, 51.5292], [-0.2804, 51.5283], [-0.2686, 51.5298], [-0.2577, 51.5354], [-0.256, 51.5339], [-0.2473, 51.5335], [-0.2463, 51.5327], [-0.247, 51.5318], [-0.2453, 51.5312], [-0.2499, 51.5289], [-0.2525, 51.525], [-0.249, 51.5139], [-0.2464, 51.5108], [-0.2451, 51.5068], [-0.2465, 51.5067], [-0.2457, 51.5046], [-0.2551, 51.5043], [-0.2534, 51.5029], [-0.2528, 51.4999], [-0.2554, 51.495], [-0.2691, 51.494], [-0.2774, 51.4991], [-0.2808, 51.5028], [-0.2857, 51.5008], [-0.2939, 51.5016], [-0.3007, 51.4993], [-0.2975, 51.4949], [-0.3011, 51.4944], [-0.3059, 51.4962], [-0.3054, 51.4945], [-0.3119, 51.492], [-0.3151, 51.494], [-0.3145, 51.4944], [-0.3158, 51.4959], [-0.3192, 51.4942], [-0.3247, 51.496], [-0.3261, 51.495], [-0.3273, 51.496], [-0.3299, 51.495], [-0.3353, 51.4962], [-0.3423, 51.496], [-0.3506, 51.4991], [-0.3631, 51.4959], [-0.3654, 51.4933], [-0.3719, 51.4905], [-0.3758, 51.4954], [-0.3779, 51.4955], [-0.3779, 51.4966], [-0.3866, 51.4947], [-0.4069, 51.4997], [-0.4029, 51.5036], [-0.3935, 51.507], [-0.3891, 51.5147], [-0.3818, 51.5186], [-0.3761, 51.5249], [-0.3764, 51.5289], [-0.3866, 51.5304], [-0.3871, 51.5296], [-0.3926, 51.5314], [-0.4118, 51.5341], [-0.4194, 51.5383], [-0.4182, 51.5392], [-0.4194, 51.5404], [-0.405, 51.5425], [-0.3953, 51.5426], [-0.3963, 51.5457], [-0.3979, 51.5457], [-0.3987, 51.5479], [-0.3949, 51.5476], [-0.3949, 51.5487], [-0.385, 51.5513], [-0.3778, 51.555], [-0.3759, 51.5531], [-0.3625, 51.556], [-0.3623, 51.5572], [-0.3475, 51.5597], [-0.3436, 51.5577], [-0.327, 51.555]]]}, "properties": {"slug": "ealing", "name": "Ealing", "code": "E09000009"}}, {"type": "Feature", "geometry": {"type": "Polygon", "coordinates": [[[-0.079, 51.6888], [-0.0621, 51.683], [-0.0493, 51.6842], [-0.0111, 51.6809], [-0.0103, 51.6767], [-0.0115, 51.6639], [-0.0089, 51.6602], [-0.0118, 51.653], [-0.0133, 51.6397], [-0.0259, 51.6217], [-0.0353, 51.613], [-0.0339, 51.6095], [-0.0352, 51.6083], [-0.0414, 51.6056], [-0.0545, 51.6089], [-0.0856, 51.6085], [-0.0958, 51.6093], [-0.1025, 51.608], [-0.1175, 51.6082], [-0.1352, 51.6112], [-0.1387, 51.6102], [-0.1445, 51.6155], [-0.142, 51.6163], [-0.1354, 51.6218], [-0.1291, 51.6323], [-0.1333, 51.6333], [-0.1402, 51.6375], [-0.145, 51.6426], [-0.1478, 51.6421], [-0.1492, 51.6453], [-0.1516, 51.6453], [-0.1511, 51.6472], [-0.1522, 51.648], [-0.1499, 51.6488], [-0.1509, 51.6501], [-0.1523, 51.6498], [-0.1547, 51.6555], [-0.1859, 51.6628], [-0.182, 51.6687], [-0.177, 51.6727], [-0.1725, 51.6731], [-0.1636, 51.6824], [-0.1635, 51.6881], [-0.1494, 51.6855], [-0.1346, 51.6888], [-0.1221, 51.6885], [-0.1058, 51.6919], [-0.079, 51.6888]]]}, "properties": {"slug": "enfield", "name": "Enfield", "code": "E09000010"}}, {"type": "Feature", "geometry": {"type": "MultiPolygon", "coordinates": [[[[0.1205, 51.5111], [0.122, 51.483], [0.1242, 51.4768], [0.1185, 51.4789], [0.112, 51.4731], [0.1082, 51.4761], [0.102, 51.4745], [0.0982, 51.4755], [0.0966, 51.4733], [0.0932, 51.473], [0.0823, 51.4666], [0.0829, 51.4598], [0.0787, 51.4593], [0.0857, 51.4565], [0.0881, 51.4473], [0.0864, 51.4453], [0.0874, 51.4433], [0.0847, 51.4426], [0.083, 51.4434], [0.0845, 51.442], [0.0818, 51.44], [0.0809, 51.4404], [0.0778, 51.4364], [0.075, 51.4359], [0.0765, 51.4349], [0.0749, 51.4308], [0.0734, 51.4318], [0.0717, 51.4294], [0.0617, 51.4237], [0.061, 51.4251], [0.0582, 51.4249], [0.0398, 51.441], [0.0305, 51.4443], [0.0294, 51.4417], [0.0215, 51.4427], [0.0206, 51.4442], [0.0215, 51.4444], [0.0212, 51.4467], [0.023, 51.4472], [0.022, 51.4489], [0.0151, 51.45], [0.0199, 51.4507], [0.0196, 51.4517], [0.0184, 51.4516], [0.0175, 51.455], [0.0115, 51.4567], [0.0099, 51.4596], [0.0091, 51.4659], [0.0133, 51.4668], [0.0126, 51.4698], [0.0165, 51.4691], [0.015, 51.4731], [0.018, 51.4738], [-0.0009, 51.4718], [-0.014, 51.4727], [-0.0151, 51.4717], [-0.0131, 51.4689], [-0.0151, 51.468], [-0.0191, 51.47], [-0.02, 51.473], [-0.0228, 51.4745], [-0.015, 51.4817], [-0.0179, 51.4832], [-0.0073, 51.4838], [-0.0033, 51.4849], [0.0014, 51.4878], [0.0024, 51.493], [-0.001, 51.4963], [-0.0022, 51.4998], [-0.0017, 51.5028], [0.0008, 51.5045], [0.0051, 51.5044], [0.0139, 51.497], [0.0216, 51.494], [0.0403, 51.4954], [0.0578, 51.494], [0.0762, 51.4958], [0.0823, 51.4989], [0.092, 51.509], [0.1205, 51.5111]]]]}, "properties": {"slug": "greenwich", "name": "Greenwich", "code": "E09000011"}}, {"type": "Feature", "geometry": {"type": "Polygon", "coordinates": [[[-0.0612, 51.5778], [-0.0584, 51.5726], [-0.0467, 51.5644], [-0.0472, 51.5627], [-0.0424, 51.5614], [-0.0284, 51.561], [-0.0258, 51.5599], [-0.0239, 51.5574], [-0.0185, 51.5552], [-0.0172, 51.5516], [-0.019, 51.5516], [-0.0189, 51.5505], [-0.0165, 51.5433], [-0.0256, 51.5433], [-0.029, 51.5423], [-0.0332, 51.5447], [-0.0377, 51.5418], [-0.0371, 51.5414], [-0.0415, 51.5374], [-0.045, 51.5358], [-0.0509, 51.5365], [-0.0529, 51.5349], [-0.0588, 51.5341], [-0.0624, 51.5355], [-0.0622, 51.5333], [-0.0652, 51.5332], [-0.0663, 51.5312], [-0.0728, 51.5307], [-0.0773, 51.5273], [-0.0763, 51.5271], [-0.0757, 51.5237], [-0.0765, 51.522], [-0.081, 51.522], [-0.0831, 51.5199], [-0.0852, 51.5203], [-0.0842, 51.5239], [-0.0855, 51.5245], [-0.085, 51.5262], [-0.087, 51.5258], [-0.0887, 51.5275], [-0.0954, 51.5292], [-0.097, 51.533], [-0.0866, 51.5373], [-0.0838, 51.5466], [-0.0767, 51.5461], [-0.0763, 51.5472], [-0.0794, 51.5517], [-0.0854, 51.5521], [-0.0904, 51.5542], [-0.0904, 51.5576], [-0.0917, 51.5602], [-0.0986, 51.5608], [-0.1044, 51.5648], [-0.096, 51.5707], [-0.0976, 51.5736], [-0.0808, 51.5756], [-0.0762, 51.5749], [-0.0612, 51.5778]]]}, "properties": {"slug": "hackney", "name": "Hackney", "code": "E09000012"}}, {"type": "Feature", "geometry": {"type": "Polygon", "coordinates": [[[-0.2338, 51.5323], [-0.2284, 51.5303], [-0.2266, 51.5246], [-0.2267, 51.5219], [-0.2283, 51.5211], [-0.2225, 51.5154], [-0.2193, 51.5096], [-0.2172, 51.5104], [-0.2158, 51.5092], [-0.2159, 51.5064], [-0.218, 51.5061], [-0.2134, 51.5002], [-0.2031, 51.4934], [-0.2024, 51.4917], [-0.198, 51.4879], [-0.1936, 51.4859], [-0.1842, 51.4772], [-0.1794, 51.4776], [-0.181, 51.4726], [-0.1845, 51.4677], [-0.1942, 51.4648], [-0.2028, 51.4653], [-0.2113, 51.4674], [-0.2168, 51.4696], [-0.2226, 51.4747], [-0.2236, 51.4819], [-0.2287, 51.4888], [-0.2344, 51.4904], [-0.2449, 51.489], [-0.2444, 51.4979], [-0.2492, 51.4969], [-0.2551, 51.5043], [-0.2457, 51.5046], [-0.2465, 51.5067], [-0.2451, 51.5068], [-0.2464, 51.5108], [-0.249, 51.5139], [-0.2525, 51.525], [-0.2499, 51.5289], [-0.2454, 51.531], [-0.247, 51.5318], [-0.2463, 51.5327], [-0.2432, 51.5318], [-0.2338, 51.5323]]]}, "properties": {"slug": "hammersmith_fulham", "name": "Hammersmith and Fulham", "code": "E09000013"}}, {"type": "Feature", "geometry": {"type": "Polygon", "coordinates": [[[-0.1277, 51.6094], [-0.1254, 51.61], [-0.1235, 51.6087], [-0.1025, 51.608], [-0.0958, 51.6093], [-0.0856, 51.6085], [-0.0545, 51.6089], [-0.0414, 51.6056], [-0.0504, 51.5967], [-0.0535, 51.59], [-0.0522, 51.5877], [-0.0619, 51.58], [-0.0612, 51.5778], [-0.0762, 51.5749], [-0.0808, 51.5756], [-0.0976, 51.5736], [-0.096, 51.5707], [-0.1044, 51.5648], [-0.115, 51.5706], [-0.1156, 51.5726], [-0.1196, 51.5744], [-0.1195, 51.5755], [-0.1311, 51.5736], [-0.1424, 51.5691], [-0.1501, 51.5716], [-0.1605, 51.5728], [-0.1712, 51.5724], [-0.1712, 51.5736], [-0.1694, 51.574], [-0.1693, 51.5774], [-0.1681, 51.5769], [-0.1668, 51.5787], [-0.167, 51.5818], [-0.1657, 51.5832], [-0.1613, 51.5853], [-0.1596, 51.5845], [-0.1571, 51.5862], [-0.1587, 51.5866], [-0.1586, 51.588], [-0.1602, 51.588], [-0.1587, 51.592], [-0.1597, 51.5922], [-0.1618, 51.5975], [-0.1563, 51.6054], [-0.1534, 51.6028], [-0.1529, 51.5992], [-0.1513, 51.5975], [-0.1445, 51.6001], [-0.142, 51.6037], [-0.1434, 51.6088], [-0.1352, 51.6112], [-0.1277, 51.6094]]]}, "properties": {"slug": "haringey", "name": "Haringey", "code": "E09000014"}}, {"type": "Feature", "geometry": {"type": "Polygon", "coordinates": [[[-0.3056, 51.6341], [-0.3045, 51.632], [-0.2874, 51.617], [-0.2671, 51.6004], [-0.2765, 51.5965], [-0.2904, 51.5935], [-0.2842, 51.5905], [-0.2825, 51.5851], [-0.3047, 51.5871], [-0.3266, 51.5786], [-0.3248, 51.5733], [-0.3221, 51.5697], [-0.3298, 51.5671], [-0.3287, 51.566], [-0.3282, 51.5625], [-0.3313, 51.5614], [-0.3356, 51.5566], [-0.3436, 51.5577], [-0.3475, 51.5597], [-0.3623, 51.5572], [-0.3625, 51.556], [-0.3759, 51.5531], [-0.3802, 51.559], [-0.3833, 51.5673], [-0.3865, 51.5716], [-0.3857, 51.5721], [-0.3916, 51.5816], [-0.392, 51.5883], [-0.3955, 51.5902], [-0.3977, 51.5969], [-0.4003, 51.5974], [-0.4023, 51.6019], [-0.4018, 51.6066], [-0.404, 51.6132], [-0.3758, 51.6182], [-0.3655, 51.6213], [-0.3597, 51.6253], [-0.3492, 51.6269], [-0.3399, 51.6307], [-0.3383, 51.6295], [-0.333, 51.6338], [-0.3265, 51.6367], [-0.3198, 51.6382], [-0.3167, 51.6405], [-0.3054, 51.6371], [-0.3044, 51.6363], [-0.3056, 51.6341]]]}, "properties": {"slug": "harrow", "name": "Harrow", "code": "E09000015"}}, {"type": "Feature", "geometry": {"type": "Polygon", "coordinates": [[[0.2241, 51.6317], [0.2374, 51.6241], [0.2528, 51.6174], [0.2646, 51.6083], [0.2581, 51.6065], [0.258, 51.6049], [0.254, 51.6016], [0.2699, 51.5996], [0.2693, 51.5953], [0.2721, 51.5877], [0.2867, 51.5736], [0.2867, 51.5716], [0.2903, 51.5643], [0.313, 51.5658], [0.3153, 51.5578], [0.3221, 51.5542], [0.3223, 51.5528], [0.3252, 51.5531], [0.3278, 51.551], [0.3295, 51.5466], [0.3289, 51.5458], [0.3314, 51.5459], [0.3339, 51.5425], [0.334, 51.5405], [0.3007, 51.5388], [0.2972, 51.5377], [0.2978, 51.5353], [0.2653, 51.5322], [0.2654, 51.525], [0.2668, 51.5245], [0.2666, 51.523], [0.265, 51.5229], [0.2637, 51.5179], [0.2538, 51.5179], [0.2509, 51.5288], [0.249, 51.5287], [0.2489, 51.5274], [0.2463, 51.5265], [0.2471, 51.5251], [0.2458, 51.5235], [0.2429, 51.5244], [0.241, 51.5226], [0.2407, 51.5212], [0.2443, 51.5205], [0.2449, 51.5188], [0.2372, 51.5193], [0.2411, 51.5137], [0.24, 51.5131], [0.2419, 51.508], [0.226, 51.5059], [0.23, 51.4994], [0.2244, 51.4973], [0.2217, 51.4978], [0.2142, 51.496], [0.2119, 51.491], [0.2096, 51.4898], [0.1877, 51.4879], [0.1839, 51.4922], [0.1825, 51.4965], [0.1838, 51.4972], [0.1802, 51.5014], [0.1785, 51.5053], [0.165, 51.5116], [0.1588, 51.5123], [0.1644, 51.527], [0.1708, 51.5326], [0.1751, 51.5385], [0.1792, 51.5403], [0.1804, 51.5441], [0.186, 51.5475], [0.1902, 51.5527], [0.1869, 51.5558], [0.1848, 51.5564], [0.1848, 51.5599], [0.1827, 51.5612], [0.1852, 51.5655], [0.1835, 51.5646], [0.1734, 51.5651], [0.1619, 51.5616], [0.1513, 51.5681], [0.1467, 51.5688], [0.1497, 51.5697], [0.149, 51.5731], [0.1479, 51.5731], [0.148, 51.5758], [0.147, 51.5757], [0.1475, 51.5808], [0.1486, 51.5808], [0.151, 51.5838], [0.1511, 51.5955], [0.1499, 51.597], [0.1476, 51.5968], [0.1495, 51.6029], [0.1475, 51.6122], [0.1382, 51.6235], [0.1555, 51.6233], [0.1689, 51.6214], [0.1804, 51.6245], [0.1812, 51.6258], [0.1859, 51.6244], [0.186, 51.6255], [0.1894, 51.6245], [0.1948, 51.6257], [0.2036, 51.6252], [0.2221, 51.6301], [0.2241, 51.6317]]]}, "properties": {"slug": "havering", "name": "Havering", "code": "E09000016"}}, {"type": "Feature", "geometry": {"type": "Polygon", "coordinates": [[[-0.4942, 51.6311], [-0.4915, 51.6308], [-0.4882, 51.627], [-0.4767, 51.6219], [-0.4692, 51.6168], [-0.4571, 51.6123], [-0.4489, 51.6153], [-0.4455, 51.6196], [-0.4406, 51.6201], [-0.4265, 51.617], [-0.4166, 51.6164], [-0.411, 51.6138], [-0.404, 51.6132], [-0.4018, 51.6066], [-0.4023, 51.6019], [-0.4003, 51.5974], [-0.3977, 51.5969], [-0.3955, 51.5902], [-0.392, 51.5883], [-0.3916, 51.5816], [-0.3857, 51.5721], [-0.3865, 51.5716], [-0.3833, 51.5673], [-0.3823, 51.5629], [-0.3777, 51.5547], [-0.385, 51.5513], [-0.3949, 51.5487], [-0.3949, 51.5476], [-0.3987, 51.5479], [-0.3979, 51.5457], [-0.3963, 51.5457], [-0.3953, 51.5426], [-0.405, 51.5425], [-0.4194, 51.5404], [-0.4182, 51.5392], [-0.4194, 51.5383], [-0.4118, 51.5341], [-0.3926, 51.5314], [-0.3871, 51.5296], [-0.3866, 51.5304], [-0.3764, 51.5289], [-0.3761, 51.5249], [-0.3818, 51.5186], [-0.3891, 51.5147], [-0.3935, 51.507], [-0.4029, 51.5036], [-0.4069, 51.4997], [-0.4096, 51.4999], [-0.4126, 51.4885], [-0.4169, 51.4825], [-0.4149, 51.4769], [-0.4158, 51.4739], [-0.4111, 51.4699], [-0.4336, 51.4617], [-0.4366, 51.4579], [-0.435, 51.4569], [-0.4414, 51.4568], [-0.4439, 51.4533], [-0.4557, 51.4552], [-0.4611, 51.4572], [-0.4736, 51.4586], [-0.4772, 51.4614], [-0.4862, 51.4614], [-0.4939, 51.4628], [-0.4969, 51.4658], [-0.501, 51.4673], [-0.5102, 51.4675], [-0.5098, 51.4692], [-0.5059, 51.4725], [-0.5035, 51.4805], [-0.4987, 51.4861], [-0.4997, 51.4868], [-0.4992, 51.4886], [-0.4949, 51.4913], [-0.4948, 51.4927], [-0.4914, 51.4931], [-0.4887, 51.496], [-0.4895, 51.4976], [-0.4889, 51.4986], [-0.4898, 51.499], [-0.4863, 51.5009], [-0.4847, 51.5036], [-0.4851, 51.5052], [-0.4833, 51.5066], [-0.4855, 51.51], [-0.4898, 51.5115], [-0.4896, 51.5141], [-0.4923, 51.5171], [-0.4904, 51.5202], [-0.4912, 51.5213], [-0.4908, 51.5264], [-0.489, 51.5291], [-0.4912, 51.5333], [-0.4905, 51.5342], [-0.4955, 51.5384], [-0.4936, 51.541], [-0.4918, 51.5416], [-0.4908, 51.545], [-0.4914, 51.5461], [-0.4893, 51.5464], [-0.4866, 51.55], [-0.4778, 51.5548], [-0.4766, 51.558], [-0.4775, 51.5603], [-0.481, 51.5607], [-0.4808, 51.5618], [-0.4828, 51.5628], [-0.4826, 51.5657], [-0.4848, 51.5669], [-0.484, 51.5712], [-0.4855, 51.5738], [-0.484, 51.5751], [-0.4889, 51.5773], [-0.4886, 51.5796], [-0.4896, 51.5818], [-0.4948, 51.5848], [-0.4957, 51.5881], [-0.4995, 51.5921], [-0.4986, 51.5944], [-0.5008, 51.6003], [-0.5002, 51.6012], [-0.4974, 51.601], [-0.4963, 51.6024], [-0.4992, 51.6089], [-0.4953, 51.6189], [-0.5001, 51.6221], [-0.4976, 51.6266], [-0.5001, 51.6286], [-0.4971, 51.6317], [-0.4942, 51.6311]]]}, "properties": {"slug": "hillingdon", "name": "Hillingdon", "code": "E09000017"}}, {"type": "Feature", "geometry": {"type": "MultiPolygon", "coordinates": [[[[-0.2808, 51.5028], [-0.2774, 51.4991], [-0.2691, 51.494], [-0.2554, 51.495], [-0.2528, 51.4999], [-0.253, 51.5014], [-0.2492, 51.4969], [-0.2444, 51.4979], [-0.2456, 51.4901], [-0.2445, 51.4887], [-0.2497, 51.4857], [-0.2514, 51.4822], [-0.2515, 51.4773], [-0.2547, 51.4729], [-0.2581, 51.4717], [-0.2657, 51.4719], [-0.2731, 51.477], [-0.2767, 51.4833], [-0.2816, 51.4863], [-0.2872, 51.4879], [-0.2925, 51.4875], [-0.299, 51.4853], [-0.3004, 51.484], [-0.2997, 51.4833], [-0.3063, 51.4828], [-0.3001, 51.4827], [-0.3047, 51.4799], [-0.3069, 51.4762], [-0.3225, 51.4707], [-0.3215, 51.4704], [-0.3218, 51.4654], [-0.324, 51.465], [-0.3268, 51.4616], [-0.3256, 51.4581], [-0.3269, 51.457], [-0.3304, 51.4579], [-0.333, 51.4554], [-0.3363, 51.4557], [-0.337, 51.4546], [-0.3406, 51.4573], [-0.3401, 51.4592], [-0.3486, 51.4568], [-0.3528, 51.4569], [-0.3535, 51.4582], [-0.3558, 51.4584], [-0.3684, 51.4569], [-0.373, 51.4575], [-0.3838, 51.4495], [-0.3878, 51.4494], [-0.3862, 51.4467], [-0.3797, 51.4443], [-0.3782, 51.4425], [-0.3731, 51.4437], [-0.3668, 51.4416], [-0.3778, 51.4368], [-0.3761, 51.4355], [-0.3877, 51.4289], [-0.3871, 51.4282], [-0.3884, 51.428], [-0.3841, 51.4227], [-0.3854, 51.4206], [-0.3928, 51.4234], [-0.3913, 51.4223], [-0.3981, 51.4236], [-0.4054, 51.4225], [-0.4084, 51.4238], [-0.4109, 51.4273], [-0.4131, 51.4279], [-0.4125, 51.4288], [-0.4144, 51.4293], [-0.4138, 51.4301], [-0.4179, 51.431], [-0.4173, 51.4319], [-0.4191, 51.4324], [-0.4275, 51.4308], [-0.4278, 51.4293], [-0.4295, 51.4288], [-0.44, 51.4306], [-0.4398, 51.4346], [-0.4477, 51.435], [-0.4463, 51.44], [-0.4565, 51.4382], [-0.4554, 51.4421], [-0.4574, 51.443], [-0.4575, 51.4491], [-0.4615, 51.449], [-0.4613, 51.4524], [-0.4593, 51.4527], [-0.4587, 51.4563], [-0.4439, 51.4533], [-0.4414, 51.4568], [-0.435, 51.4569], [-0.4366, 51.4579], [-0.4336, 51.4617], [-0.4111, 51.4699], [-0.4158, 51.4739], [-0.4149, 51.4769], [-0.4169, 51.4825], [-0.4126, 51.4885], [-0.4108, 51.4977], [-0.4092, 51.5003], [-0.3866, 51.4947], [-0.3779, 51.4966], [-0.3779, 51.4955], [-0.3758, 51.4954], [-0.3719, 51.4905], [-0.3654, 51.4933], [-0.3631, 51.4959], [-0.3506, 51.4991], [-0.3423, 51.496], [-0.3353, 51.4962], [-0.3299, 51.495], [-0.3273, 51.496], [-0.3261, 51.495], [-0.3247, 51.496], [-0.3192, 51.4942], [-0.3158, 51.4959], [-0.3145, 51.4944], [-0.3151, 51.494], [-0.3119, 51.492], [-0.3054, 51.4945], [-0.3059, 51.4962], [-0.3011, 51.4944], [-0.2975, 51.4949], [-0.3007, 51.4993], [-0.2939, 51.5016], [-0.2857, 51.5008], [-0.2808, 51.5028]]]]}, "properties": {"slug": "hounslow", "name": "Hounslow", "code": "E09000018"}}, {"type": "Feature", "geometry": {"type": "Polygon", "coordinates": [[[-0.1176, 51.5741], [-0.1156, 51.5726], [-0.115, 51.5706], [-0.0986, 51.5608], [-0.0917, 51.5602], [-0.0904, 51.5576], [-0.0904, 51.5542], [-0.0854, 51.5521], [-0.0794, 51.5517], [-0.0763, 51.5472], [-0.0767, 51.5461], [-0.0838, 51.5466], [-0.0866, 51.5373], [-0.097, 51.533], [-0.0954, 51.5292], [-0.0887, 51.5275], [-0.087, 51.5258], [-0.085, 51.5262], [-0.0855, 51.5245], [-0.0842, 51.5239], [-0.0862, 51.5188], [-0.09, 51.52], [-0.0897, 51.5207], [-0.0943, 51.5215], [-0.0951, 51.5231], [-0.0968, 51.5233], [-0.0979, 51.5229], [-0.0977, 51.5207], [-0.1053, 51.5186], [-0.107, 51.5222], [-0.1136, 51.5246], [-0.1142, 51.5255], [-0.1129, 51.5264], [-0.1155, 51.5278], [-0.1159, 51.5298], [-0.1226, 51.5308], [-0.1224, 51.537], [-0.1251, 51.5411], [-0.1271, 51.5475], [-0.1301, 51.5496], [-0.131, 51.5515], [-0.137, 51.5553], [-0.141, 51.5605], [-0.1406, 51.5645], [-0.1424, 51.5691], [-0.1311, 51.5736], [-0.1195, 51.5755], [-0.1196, 51.5744], [-0.1176, 51.5741]]]}, "properties": {"slug": "islington", "name": "Islington", "code": "E09000019"}}, {"type": "Feature", "geometry": {"type": "Polygon", "coordinates": [[[-0.2276, 51.5302], [-0.2178, 51.5286], [-0.2155, 51.5267], [-0.206, 51.5259], [-0.204, 51.5235], [-0.2016, 51.5227], [-0.2006, 51.5207], [-0.2037, 51.5206], [-0.2008, 51.518], [-0.1992, 51.5145], [-0.1951, 51.515], [-0.194, 51.5117], [-0.1929, 51.5118], [-0.1921, 51.5099], [-0.1879, 51.5102], [-0.1842, 51.5018], [-0.1803, 51.5015], [-0.1795, 51.4978], [-0.1654, 51.4987], [-0.1585, 51.5022], [-0.155, 51.4938], [-0.156, 51.4932], [-0.1547, 51.492], [-0.1558, 51.4915], [-0.1558, 51.4896], [-0.15, 51.4855], [-0.1758, 51.4816], [-0.1793, 51.478], [-0.1839, 51.4774], [-0.1936, 51.4859], [-0.198, 51.4879], [-0.2031, 51.4934], [-0.2134, 51.5002], [-0.218, 51.5061], [-0.2159, 51.5064], [-0.2158, 51.5092], [-0.2172, 51.5104], [-0.2193, 51.5096], [-0.2225, 51.5154], [-0.2283, 51.5211], [-0.2267, 51.5219], [-0.2266, 51.5246], [-0.2287, 51.5299], [-0.2276, 51.5302]]]}, "properties": {"slug": "kensington_chelsea", "name": "Kensington and Chelsea", "code": "E09000020"}}, {"type": "Feature", "geometry": {"type": "Polygon", "coordinates": [[[-0.2512, 51.4224], [-0.2475, 51.4085], [-0.2453, 51.4071], [-0.2447, 51.4039], [-0.2474, 51.3976], [-0.2447, 51.3947], [-0.2417, 51.3939], [-0.2387, 51.3861], [-0.2432, 51.3826], [-0.2443, 51.3831], [-0.245, 51.3801], [-0.2539, 51.3787], [-0.261, 51.3796], [-0.2646, 51.3756], [-0.2724, 51.3722], [-0.2766, 51.3688], [-0.2841, 51.3652], [-0.2884, 51.3622], [-0.2852, 51.3612], [-0.2912, 51.3566], [-0.2929, 51.3524], [-0.2992, 51.3484], [-0.3041, 51.3432], [-0.3062, 51.3351], [-0.319, 51.328], [-0.3274, 51.3263], [-0.3301, 51.3275], [-0.3307, 51.329], [-0.3291, 51.3303], [-0.329, 51.3402], [-0.3275, 51.344], [-0.3305, 51.3484], [-0.328, 51.3522], [-0.3237, 51.3544], [-0.3198, 51.3599], [-0.3167, 51.3732], [-0.3143, 51.3746], [-0.3087, 51.3754], [-0.3074, 51.3784], [-0.3117, 51.3858], [-0.3108, 51.3862], [-0.3132, 51.3887], [-0.316, 51.3876], [-0.3167, 51.3888], [-0.3141, 51.3902], [-0.3177, 51.3937], [-0.3095, 51.4001], [-0.3083, 51.4153], [-0.3059, 51.4213], [-0.3084, 51.425], [-0.3144, 51.4282], [-0.3129, 51.4303], [-0.3107, 51.4322], [-0.3069, 51.4302], [-0.3059, 51.4314], [-0.3018, 51.4304], [-0.3016, 51.4314], [-0.2948, 51.4264], [-0.2934, 51.4265], [-0.293, 51.4289], [-0.2906, 51.429], [-0.2866, 51.4202], [-0.2804, 51.4219], [-0.2709, 51.4296], [-0.2541, 51.4373], [-0.2513, 51.4342], [-0.2511, 51.4326], [-0.2542, 51.4293], [-0.2522, 51.4257], [-0.2529, 51.4232], [-0.2512, 51.4224]]]}, "properties": {"slug": "kingston", "name": "Kingston upon Thames", "code": "E09000021"}}, {"type": "Feature", "geometry": {"type": "Polygon", "coordinates": [[[-0.111, 51.5085], [-0.1089, 51.5084], [-0.1073, 51.5071], [-0.1064, 51.5034], [-0.1074, 51.503], [-0.1059, 51.502], [-0.1115, 51.4965], [-0.1049, 51.4935], [-0.1033, 51.4913], [-0.1085, 51.4858], [-0.1064, 51.4849], [-0.1072, 51.4836], [-0.104, 51.4809], [-0.1082, 51.4803], [-0.1, 51.4769], [-0.1007, 51.4744], [-0.096, 51.4699], [-0.093, 51.472], [-0.0901, 51.4658], [-0.0922, 51.4611], [-0.1011, 51.4539], [-0.1015, 51.4522], [-0.1008, 51.4503], [-0.0951, 51.4454], [-0.0882, 51.4293], [-0.0859, 51.4285], [-0.0835, 51.423], [-0.0817, 51.4234], [-0.0809, 51.4219], [-0.0789, 51.4216], [-0.0786, 51.4199], [-0.0863, 51.4193], [-0.0927, 51.4226], [-0.1126, 51.4232], [-0.1198, 51.4188], [-0.1245, 51.4134], [-0.1279, 51.412], [-0.1335, 51.4129], [-0.1341, 51.411], [-0.1426, 51.4133], [-0.1448, 51.4124], [-0.1481, 51.4129], [-0.1378, 51.4211], [-0.1389, 51.4243], [-0.1384, 51.4305], [-0.1353, 51.4303], [-0.1365, 51.4339], [-0.1379, 51.4338], [-0.1399, 51.4369], [-0.1377, 51.4386], [-0.1359, 51.442], [-0.1436, 51.4418], [-0.1455, 51.4451], [-0.1448, 51.4484], [-0.1423, 51.451], [-0.1477, 51.4523], [-0.1509, 51.4638], [-0.1505, 51.4676], [-0.1347, 51.4733], [-0.1352, 51.4743], [-0.1299, 51.4812], [-0.1275, 51.482], [-0.1263, 51.4845], [-0.1285, 51.485], [-0.1242, 51.4879], [-0.1221, 51.4919], [-0.1182, 51.5058], [-0.111, 51.5085]]]}, "properties": {"slug": "lambeth", "name": "Lambeth", "code": "E09000022"}}, {"type": "Feature", "geometry": {"type": "Polygon", "coordinates": [[[-0.0324, 51.4931], [-0.0294, 51.4886], [-0.0247, 51.4855], [-0.0264, 51.4815], [-0.0233, 51.4808], [-0.023, 51.4797], [-0.0171, 51.4804], [-0.0192, 51.4797], [-0.0194, 51.4772], [-0.0228, 51.4759], [-0.0209, 51.4761], [-0.0228, 51.4745], [-0.02, 51.473], [-0.0191, 51.47], [-0.0151, 51.468], [-0.0131, 51.4689], [-0.0151, 51.4717], [-0.014, 51.4727], [-0.0009, 51.4718], [0.018, 51.4738], [0.015, 51.4731], [0.0165, 51.4691], [0.0126, 51.4698], [0.0133, 51.4668], [0.0091, 51.4659], [0.0099, 51.4596], [0.0115, 51.4567], [0.0175, 51.455], [0.0184, 51.4516], [0.0196, 51.4517], [0.0199, 51.4507], [0.0151, 51.45], [0.022, 51.4489], [0.023, 51.4472], [0.0212, 51.4467], [0.0215, 51.4444], [0.0206, 51.4442], [0.0215, 51.4427], [0.0294, 51.4417], [0.0288, 51.4388], [0.0248, 51.4382], [0.0254, 51.4357], [0.0287, 51.4364], [0.0286, 51.434], [0.0312, 51.4321], [0.0337, 51.4317], [0.0377, 51.4333], [0.0378, 51.4278], [0.0391, 51.4247], [0.0362, 51.4224], [0.0255, 51.429], [0.0212, 51.4269], [0.0141, 51.4262], [0.0144, 51.4252], [0.01, 51.4225], [0.0081, 51.423], [0.0052, 51.4194], [0.0057, 51.4185], [0.0035, 51.4174], [0.0017, 51.4186], [-0.0007, 51.4159], [-0.005, 51.4146], [-0.0066, 51.416], [-0.0066, 51.4147], [-0.0103, 51.4136], [-0.0142, 51.4136], [-0.0143, 51.4152], [-0.021, 51.416], [-0.0226, 51.4176], [-0.0214, 51.4183], [-0.021, 51.421], [-0.0301, 51.4256], [-0.032, 51.4255], [-0.0318, 51.4247], [-0.0375, 51.425], [-0.0385, 51.424], [-0.041, 51.4243], [-0.0463, 51.4224], [-0.0517, 51.4225], [-0.0518, 51.4236], [-0.0568, 51.423], [-0.0624, 51.4252], [-0.0739, 51.4262], [-0.0751, 51.429], [-0.0729, 51.4321], [-0.0668, 51.4339], [-0.0634, 51.4376], [-0.064, 51.4408], [-0.065, 51.4412], [-0.0618, 51.4478], [-0.0576, 51.4503], [-0.0539, 51.4487], [-0.0461, 51.4499], [-0.0416, 51.455], [-0.0461, 51.4569], [-0.0452, 51.4594], [-0.046, 51.464], [-0.0508, 51.4667], [-0.0523, 51.4692], [-0.0527, 51.478], [-0.0542, 51.4786], [-0.0528, 51.4827], [-0.0529, 51.4867], [-0.054, 51.4879], [-0.0505, 51.4879], [-0.0519, 51.4891], [-0.0465, 51.4907], [-0.0423, 51.4901], [-0.0403, 51.491], [-0.0405, 51.4928], [-0.0324, 51.4931]]]}, "properties": {"slug": "lewisham", "name": "Lewisham", "code": "E09000023"}}, {"type": "Feature", "geometry": {"type": "Polygon", "coordinates": [[[-0.1893, 51.438], [-0.1912, 51.4335], [-0.1898, 51.4314], [-0.1857, 51.4332], [-0.1842, 51.4313], [-0.184, 51.4264], [-0.1819, 51.4247], [-0.1736, 51.4232], [-0.165, 51.4201], [-0.1616, 51.4199], [-0.1599, 51.4226], [-0.1445, 51.4178], [-0.1404, 51.4193], [-0.1481, 51.4129], [-0.1448, 51.4124], [-0.1426, 51.4133], [-0.1341, 51.411], [-0.1335, 51.4129], [-0.1277, 51.4123], [-0.1295, 51.4096], [-0.1321, 51.4092], [-0.1323, 51.4068], [-0.1304, 51.4033], [-0.1241, 51.3976], [-0.1297, 51.3937], [-0.1287, 51.3935], [-0.1343, 51.3908], [-0.1418, 51.3893], [-0.1443, 51.3907], [-0.158, 51.3893], [-0.161, 51.3878], [-0.1653, 51.388], [-0.1713, 51.3925], [-0.1748, 51.3934], [-0.1793, 51.3898], [-0.1884, 51.3854], [-0.1938, 51.3879], [-0.2003, 51.3849], [-0.2034, 51.3873], [-0.2051, 51.3861], [-0.2098, 51.3883], [-0.2181, 51.3802], [-0.2277, 51.384], [-0.2337, 51.3876], [-0.2346, 51.3906], [-0.2397, 51.3893], [-0.2417, 51.3939], [-0.2447, 51.3947], [-0.2474, 51.3976], [-0.2447, 51.4039], [-0.2453, 51.4071], [-0.2475, 51.4085], [-0.2497, 51.4186], [-0.2512, 51.4224], [-0.2529, 51.4232], [-0.2522, 51.4257], [-0.2542, 51.4293], [-0.2511, 51.4326], [-0.2312, 51.4382], [-0.2243, 51.4389], [-0.2125, 51.4378], [-0.19, 51.4415], [-0.1906, 51.4389], [-0.1893, 51.438]]]}, "properties": {"slug": "merton", "name": "Merton", "code": "E09000024"}}, {"type": "Feature", "geometry": {"type": "Polygon", "coordinates": [[[0.0557, 51.5594], [0.0602, 51.5564], [0.0636, 51.5573], [0.0678, 51.5533], [0.0687, 51.5475], [0.0667, 51.5406], [0.0689, 51.5372], [0.068, 51.5362], [0.0695, 51.5363], [0.0727, 51.5293], [0.078, 51.5291], [0.0776, 51.5285], [0.0852, 51.5256], [0.0921, 51.5256], [0.0923, 51.5241], [0.0907, 51.5239], [0.0945, 51.5203], [0.0948, 51.5165], [0.0969, 51.5153], [0.0903, 51.5148], [0.0833, 51.5115], [0.078, 51.5051], [0.0767, 51.5049], [0.0781, 51.504], [0.074, 51.5021], [0.0747, 51.5016], [0.0737, 51.5004], [0.0697, 51.4992], [0.0601, 51.4984], [0.0435, 51.4999], [0.0246, 51.4986], [0.0197, 51.4996], [0.0097, 51.5068], [0.0098, 51.5092], [0.0066, 51.51], [0.0082, 51.5125], [0.0072, 51.5144], [0.0051, 51.5142], [0.0037, 51.511], [0.0026, 51.511], [0.0044, 51.5147], [0.0032, 51.5158], [-0.0025, 51.5185], [-0.0051, 51.5169], [-0.0086, 51.52], [-0.0065, 51.5257], [0.0007, 51.5283], [0.0018, 51.5303], [0.0011, 51.5311], [-0.0023, 51.5272], [-0.0038, 51.527], [-0.0039, 51.5283], [-0.0049, 51.5264], [-0.008, 51.5272], [-0.0069, 51.5261], [-0.0079, 51.523], [-0.0076, 51.5263], [-0.0086, 51.5276], [-0.0107, 51.5293], [-0.0171, 51.5313], [-0.0213, 51.537], [-0.0161, 51.5425], [-0.019, 51.5516], [-0.0108, 51.5526], [-0.0094, 51.5522], [-0.0087, 51.5499], [0.0033, 51.5521], [0.0057, 51.5519], [0.0058, 51.5507], [0.0096, 51.5512], [0.0108, 51.5522], [0.0096, 51.5534], [0.0111, 51.5544], [0.0146, 51.555], [0.017, 51.5532], [0.0215, 51.5549], [0.0205, 51.5561], [0.0234, 51.5568], [0.0238, 51.5555], [0.0254, 51.5555], [0.0255, 51.554], [0.0354, 51.5553], [0.0463, 51.5548], [0.0429, 51.5584], [0.042, 51.5615], [0.0503, 51.564], [0.0557, 51.5594]]]}, "properties": {"slug": "newham", "name": "Newham", "code": "E09000025"}}, {"type": "Feature", "geometry": {"type": "Polygon", "coordinates": [[[0.0327, 51.6223], [0.0408, 51.6157], [0.0537, 51.6183], [0.0542, 51.6167], [0.0502, 51.6164], [0.048, 51.6133], [0.0626, 51.607], [0.0728, 51.6047], [0.0794, 51.607], [0.0844, 51.6063], [0.0871, 51.6044], [0.0925, 51.6062], [0.0919, 51.6082], [0.0947, 51.6108], [0.0923, 51.6136], [0.0981, 51.6154], [0.1002, 51.6127], [0.1034, 51.6135], [0.1038, 51.6126], [0.1167, 51.6169], [0.1193, 51.6154], [0.1242, 51.6175], [0.1292, 51.6214], [0.1382, 51.6235], [0.1475, 51.6122], [0.1495, 51.6029], [0.1482, 51.599], [0.1466, 51.5994], [0.1296, 51.59], [0.131, 51.5875], [0.1264, 51.5867], [0.1278, 51.5816], [0.1326, 51.5813], [0.1336, 51.58], [0.1308, 51.5794], [0.1316, 51.5771], [0.1292, 51.5763], [0.1294, 51.5739], [0.1316, 51.5718], [0.1299, 51.5715], [0.1293, 51.5665], [0.1191, 51.5631], [0.1197, 51.5625], [0.1175, 51.5592], [0.1205, 51.5586], [0.1171, 51.5569], [0.1133, 51.5573], [0.1127, 51.5565], [0.1147, 51.5553], [0.1119, 51.5527], [0.1084, 51.5527], [0.1043, 51.5498], [0.0935, 51.5459], [0.0926, 51.5496], [0.0915, 51.5483], [0.0859, 51.5473], [0.078, 51.5441], [0.0718, 51.5436], [0.0697, 51.5441], [0.0695, 51.5504], [0.066, 51.5568], [0.0574, 51.5608], [0.0607, 51.5584], [0.0659, 51.5567], [0.0676, 51.5547], [0.0692, 51.5503], [0.0693, 51.5442], [0.0684, 51.5444], [0.0678, 51.5533], [0.0666, 51.5547], [0.0636, 51.5573], [0.0602, 51.5564], [0.0572, 51.558], [0.0503, 51.564], [0.042, 51.5615], [0.0429, 51.5584], [0.0463, 51.5548], [0.0354, 51.5553], [0.0255, 51.554], [0.0254, 51.5555], [0.0238, 51.5555], [0.0234, 51.5568], [0.0205, 51.5561], [0.0148, 51.5594], [0.0145, 51.5656], [0.0189, 51.5663], [0.0177, 51.57], [0.0191, 51.5699], [0.0189, 51.5723], [0.0165, 51.5729], [0.0175, 51.5774], [0.0154, 51.5816], [0.0155, 51.5833], [0.0134, 51.5838], [0.0121, 51.5927], [0.013, 51.5991], [0.0214, 51.6111], [0.0163, 51.6169], [0.0087, 51.6191], [0.0145, 51.6189], [0.0143, 51.6203], [0.0188, 51.6233], [0.021, 51.6289], [0.0327, 51.6223]]]}, "properties": {"slug": "redbridge", "name": "Redbridge", "code": "E09000026"}}, {"type": "Feature", "geometry": {"type": "MultiPolygon", "coordinates": [[[[-0.2249, 51.4737], [-0.2229, 51.4718], [-0.2236, 51.4707], [-0.2327, 51.4725], [-0.2333, 51.464], [-0.253, 51.4652], [-0.2559, 51.4631], [-0.258, 51.4604], [-0.2568, 51.4598], [-0.2591, 51.455], [-0.2473, 51.4492], [-0.2416, 51.4431], [-0.2709, 51.4296], [-0.2804, 51.4219], [-0.2866, 51.4202], [-0.2906, 51.429], [-0.293, 51.4289], [-0.2934, 51.4265], [-0.2948, 51.4264], [-0.3016, 51.4314], [-0.3018, 51.4304], [-0.3059, 51.4314], [-0.3069, 51.4302], [-0.3107, 51.4322], [-0.3144, 51.4282], [-0.3084, 51.425], [-0.3059, 51.4213], [-0.3083, 51.4153], [-0.3087, 51.4023], [-0.3095, 51.4001], [-0.3129, 51.3971], [-0.3198, 51.3926], [-0.3276, 51.3917], [-0.3405, 51.4031], [-0.3591, 51.4119], [-0.3647, 51.4116], [-0.3739, 51.4085], [-0.3794, 51.4078], [-0.3834, 51.4085], [-0.3838, 51.4101], [-0.3896, 51.4107], [-0.3903, 51.4143], [-0.3861, 51.4143], [-0.3877, 51.4193], [-0.3866, 51.4201], [-0.3929, 51.4233], [-0.3854, 51.4206], [-0.3841, 51.4227], [-0.3884, 51.428], [-0.3871, 51.4282], [-0.3877, 51.4289], [-0.3761, 51.4355], [-0.3778, 51.4368], [-0.3668, 51.4416], [-0.3731, 51.4437], [-0.3782, 51.4425], [-0.3797, 51.4443], [-0.3862, 51.4467], [-0.3878, 51.4494], [-0.3838, 51.4495], [-0.373, 51.4575], [-0.3684, 51.4569], [-0.3558, 51.4584], [-0.3535, 51.4582], [-0.3528, 51.4569], [-0.3486, 51.4568], [-0.3401, 51.4592], [-0.3406, 51.4573], [-0.337, 51.4546], [-0.3363, 51.4557], [-0.333, 51.4554], [-0.3304, 51.4579], [-0.3269, 51.457], [-0.3256, 51.4581], [-0.3264, 51.4621], [-0.3237, 51.4651], [-0.3217, 51.4654], [-0.314, 51.4597], [-0.3059, 51.4562], [-0.3039, 51.4533], [-0.3044, 51.4516], [-0.3089, 51.4487], [-0.3158, 51.4467], [-0.3252, 51.4465], [-0.3316, 51.4413], [-0.3318, 51.4392], [-0.3291, 51.4367], [-0.3272, 51.4324], [-0.3185, 51.4291], [-0.327, 51.4334], [-0.3301, 51.4416], [-0.3278, 51.4434], [-0.3217, 51.4454], [-0.3058, 51.4486], [-0.3026, 51.4522], [-0.305, 51.4565], [-0.308, 51.4588], [-0.3139, 51.4607], [-0.3198, 51.4647], [-0.3186, 51.4702], [-0.3068, 51.4749], [-0.2953, 51.4848], [-0.29, 51.4863], [-0.2844, 51.4859], [-0.2779, 51.4821], [-0.274, 51.4756], [-0.2705, 51.4727], [-0.264, 51.4702], [-0.2586, 51.4704], [-0.2515, 51.4736], [-0.2497, 51.4761], [-0.2484, 51.4838], [-0.2411, 51.4883], [-0.2356, 51.489], [-0.2313, 51.4879], [-0.228, 51.4851], [-0.2266, 51.4762], [-0.2249, 51.4737]]]]}, "properties": {"slug": "richmond", "name": "Richmond upon Thames", "code": "E09000027"}}, {"type": "Feature", "geometry": {"type": "Polygon", "coordinates": [[[-0.1047, 51.5086], [-0.0961, 51.5084], [-0.0811, 51.5059], [-0.0709, 51.5026], [-0.0735, 51.5005], [-0.0708, 51.5022], [-0.0638, 51.5006], [-0.0573, 51.5009], [-0.0413, 51.5075], [-0.0342, 51.5063], [-0.0323, 51.5043], [-0.0325, 51.496], [-0.034, 51.4957], [-0.0325, 51.4957], [-0.0332, 51.4941], [-0.0324, 51.4931], [-0.0405, 51.4928], [-0.0403, 51.491], [-0.0423, 51.4901], [-0.0465, 51.4907], [-0.0519, 51.4891], [-0.0505, 51.4879], [-0.054, 51.4879], [-0.0529, 51.4867], [-0.0528, 51.4827], [-0.0542, 51.4786], [-0.0527, 51.478], [-0.0523, 51.4692], [-0.0508, 51.4667], [-0.046, 51.464], [-0.0452, 51.4594], [-0.0461, 51.4569], [-0.0416, 51.455], [-0.0461, 51.4499], [-0.0539, 51.4487], [-0.0576, 51.4503], [-0.0618, 51.4478], [-0.065, 51.4412], [-0.064, 51.4408], [-0.0634, 51.4376], [-0.0668, 51.4339], [-0.0722, 51.4325], [-0.0749, 51.4298], [-0.0739, 51.4262], [-0.0783, 51.4206], [-0.0817, 51.4234], [-0.0835, 51.423], [-0.0859, 51.4285], [-0.0882, 51.4293], [-0.0951, 51.4454], [-0.1008, 51.4503], [-0.1015, 51.4522], [-0.1011, 51.4539], [-0.0922, 51.4611], [-0.0901, 51.4658], [-0.093, 51.472], [-0.096, 51.4699], [-0.1007, 51.4744], [-0.1, 51.4769], [-0.1082, 51.4803], [-0.104, 51.4809], [-0.1072, 51.4836], [-0.1064, 51.4849], [-0.1085, 51.4858], [-0.1033, 51.4913], [-0.1049, 51.4935], [-0.1115, 51.4965], [-0.1059, 51.502], [-0.1074, 51.503], [-0.1064, 51.5034], [-0.1065, 51.5051], [-0.1089, 51.5084], [-0.1047, 51.5086]]]}, "properties": {"slug": "southwark", "name": "Southwark", "code": "E09000028"}}, {"type": "Feature", "geometry": {"type": "Polygon", "coordinates": [[[-0.1663, 51.3896], [-0.1653, 51.388], [-0.161, 51.3878], [-0.158, 51.3893], [-0.1443, 51.3907], [-0.1418, 51.3893], [-0.1348, 51.391], [-0.1326, 51.3901], [-0.1332, 51.3896], [-0.1296, 51.3872], [-0.1306, 51.3863], [-0.1288, 51.3856], [-0.1295, 51.3853], [-0.1286, 51.3825], [-0.1303, 51.3822], [-0.128, 51.3805], [-0.1258, 51.3756], [-0.1278, 51.3747], [-0.1248, 51.3737], [-0.1233, 51.3712], [-0.1221, 51.3658], [-0.1241, 51.3654], [-0.1213, 51.3647], [-0.1209, 51.3633], [-0.1218, 51.36], [-0.1229, 51.3599], [-0.1219, 51.3591], [-0.1246, 51.3584], [-0.1242, 51.3574], [-0.1214, 51.3577], [-0.1168, 51.3458], [-0.1269, 51.3449], [-0.1273, 51.3471], [-0.1283, 51.3475], [-0.1329, 51.3454], [-0.1325, 51.3443], [-0.1369, 51.3447], [-0.1446, 51.3421], [-0.1435, 51.3405], [-0.1475, 51.3388], [-0.1456, 51.3325], [-0.1441, 51.3307], [-0.1492, 51.3288], [-0.1444, 51.3265], [-0.1456, 51.3235], [-0.1507, 51.3222], [-0.1527, 51.323], [-0.1565, 51.3215], [-0.1586, 51.324], [-0.1606, 51.3232], [-0.1642, 51.326], [-0.1644, 51.3281], [-0.1623, 51.3289], [-0.1631, 51.3303], [-0.1729, 51.33], [-0.175, 51.3338], [-0.1875, 51.3408], [-0.1965, 51.3434], [-0.2012, 51.3399], [-0.2131, 51.3356], [-0.212, 51.3333], [-0.2142, 51.3303], [-0.2161, 51.3298], [-0.2208, 51.3298], [-0.2298, 51.3365], [-0.2173, 51.3434], [-0.2204, 51.3514], [-0.2221, 51.3513], [-0.2227, 51.3571], [-0.2269, 51.3626], [-0.2332, 51.366], [-0.2454, 51.3669], [-0.2449, 51.3806], [-0.2443, 51.3831], [-0.2432, 51.3826], [-0.2387, 51.3861], [-0.2397, 51.3893], [-0.2346, 51.3906], [-0.2337, 51.3876], [-0.2277, 51.384], [-0.2181, 51.3802], [-0.2098, 51.3883], [-0.2051, 51.3861], [-0.2034, 51.3873], [-0.2003, 51.3849], [-0.1938, 51.3879], [-0.1884, 51.3854], [-0.1793, 51.3898], [-0.1748, 51.3934], [-0.1663, 51.3896]]]}, "properties": {"slug": "sutton", "name": "Sutton", "code": "E09000029"}}, {"type": "Feature", "geometry": {"type": "Polygon", "coordinates": [[[-0.0296, 51.5431], [-0.029, 51.5423], [-0.0256, 51.5433], [-0.0165, 51.5433], [-0.0166, 51.5414], [-0.0213, 51.537], [-0.0171, 51.5313], [-0.0107, 51.5293], [-0.0076, 51.5263], [-0.0092, 51.5199], [-0.0067, 51.5183], [-0.006, 51.5164], [-0.0026, 51.5178], [0.0027, 51.5155], [0.0036, 51.5145], [0.0018, 51.5109], [0.0028, 51.5104], [0.0043, 51.5106], [0.0059, 51.5139], [0.0074, 51.5127], [0.0056, 51.51], [0.009, 51.5088], [0.0088, 51.5074], [0.0037, 51.5084], [-0.0017, 51.5075], [-0.0058, 51.5051], [-0.0076, 51.5015], [-0.0087, 51.5013], [-0.0062, 51.4956], [-0.0033, 51.4923], [-0.0046, 51.4881], [-0.0115, 51.4861], [-0.0164, 51.4861], [-0.0238, 51.4889], [-0.0273, 51.4935], [-0.0262, 51.494], [-0.0279, 51.4947], [-0.0267, 51.5033], [-0.0315, 51.5078], [-0.0299, 51.5089], [-0.0326, 51.5082], [-0.0373, 51.5094], [-0.0369, 51.51], [-0.0461, 51.5094], [-0.0596, 51.5028], [-0.0653, 51.5035], [-0.0795, 51.5078], [-0.0779, 51.5101], [-0.0728, 51.5102], [-0.074, 51.5145], [-0.0781, 51.519], [-0.0794, 51.5189], [-0.0783, 51.5219], [-0.0761, 51.5224], [-0.0763, 51.5271], [-0.0773, 51.5273], [-0.0746, 51.5299], [-0.0663, 51.5312], [-0.0652, 51.5332], [-0.0622, 51.5333], [-0.0624, 51.5355], [-0.0588, 51.5341], [-0.0529, 51.5349], [-0.0509, 51.5365], [-0.045, 51.5358], [-0.0415, 51.5374], [-0.0371, 51.5414], [-0.0377, 51.5418], [-0.0332, 51.5447], [-0.0296, 51.5431]]]}, "properties": {"slug": "tower_hamlets", "name": "Tower Hamlets", "code": "E09000030"}}, {"type": "Feature", "geometry": {"type": "Polygon", "coordinates": [[[-0.0082, 51.6436], [-0.004, 51.6427], [-0.0005, 51.6437], [0.0011, 51.6418], [0.0174, 51.6403], [0.0227, 51.6411], [0.0231, 51.6377], [0.0252, 51.6373], [0.0257, 51.6346], [0.0239, 51.6308], [0.021, 51.6289], [0.0185, 51.6228], [0.0143, 51.6203], [0.0145, 51.6189], [0.0087, 51.6191], [0.0163, 51.6169], [0.0214, 51.6111], [0.013, 51.5991], [0.0121, 51.5927], [0.0134, 51.5838], [0.0155, 51.5833], [0.0154, 51.5816], [0.0175, 51.5774], [0.0165, 51.5729], [0.0189, 51.5723], [0.0191, 51.5699], [0.0177, 51.57], [0.0189, 51.5663], [0.0145, 51.5656], [0.0148, 51.5594], [0.0171, 51.5588], [0.0215, 51.5549], [0.017, 51.5532], [0.0146, 51.555], [0.0111, 51.5544], [0.0096, 51.5534], [0.0108, 51.5522], [0.0096, 51.5512], [0.0058, 51.5507], [0.0057, 51.5519], [0.0033, 51.5521], [-0.0087, 51.5499], [-0.0094, 51.5522], [-0.0108, 51.5526], [-0.0169, 51.5514], [-0.0185, 51.5552], [-0.0239, 51.5574], [-0.0258, 51.5599], [-0.0284, 51.561], [-0.0451, 51.5618], [-0.0472, 51.5627], [-0.0467, 51.5644], [-0.0584, 51.5726], [-0.0622, 51.5792], [-0.0522, 51.5877], [-0.0535, 51.59], [-0.0504, 51.5967], [-0.0414, 51.6056], [-0.0339, 51.6095], [-0.0353, 51.613], [-0.0259, 51.6217], [-0.0168, 51.6335], [-0.0133, 51.6397], [-0.0123, 51.6462], [-0.0073, 51.6462], [-0.0082, 51.6436]]]}, "properties": {"slug": "waltham_forest", "name": "Waltham Forest", "code": "E09000031"}}, {"type": "Feature", "geometry": {"type": "Polygon", "coordinates": [[[-0.1271, 51.4836], [-0.1275, 51.482], [-0.1299, 51.4812], [-0.1352, 51.4743], [-0.1347, 51.4733], [-0.1505, 51.4676], [-0.1512, 51.4659], [-0.1477, 51.4523], [-0.1423, 51.451], [-0.1448, 51.4484], [-0.1456, 51.446], [-0.1436, 51.4418], [-0.1359, 51.442], [-0.1377, 51.4386], [-0.1399, 51.4369], [-0.1379, 51.4338], [-0.1365, 51.4339], [-0.1353, 51.4303], [-0.1384, 51.4305], [-0.1389, 51.4243], [-0.1378, 51.4211], [-0.1445, 51.4178], [-0.1599, 51.4226], [-0.1616, 51.4199], [-0.165, 51.4201], [-0.1736, 51.4232], [-0.1819, 51.4247], [-0.184, 51.4264], [-0.1842, 51.4313], [-0.1857, 51.4332], [-0.1898, 51.4314], [-0.1912, 51.4335], [-0.1893, 51.438], [-0.1906, 51.4389], [-0.19, 51.4415], [-0.2125, 51.4378], [-0.2243, 51.4389], [-0.2312, 51.4382], [-0.2511, 51.4326], [-0.2513, 51.4342], [-0.2541, 51.4373], [-0.2416, 51.4431], [-0.2473, 51.4492], [-0.2591, 51.455], [-0.2568, 51.4598], [-0.258, 51.4604], [-0.253, 51.4652], [-0.2333, 51.464], [-0.233, 51.4717], [-0.2312, 51.4728], [-0.2236, 51.4707], [-0.2229, 51.4717], [-0.2128, 51.4655], [-0.2073, 51.4639], [-0.1955, 51.4629], [-0.1951, 51.46], [-0.1933, 51.4598], [-0.1948, 51.4602], [-0.1949, 51.4618], [-0.1939, 51.4615], [-0.1948, 51.4629], [-0.1836, 51.4655], [-0.1779, 51.4706], [-0.1753, 51.4778], [-0.1716, 51.4803], [-0.1489, 51.4836], [-0.1369, 51.4824], [-0.1285, 51.485], [-0.1263, 51.4845], [-0.1271, 51.4836]]]}, "properties": {"slug": "wandsworth", "name": "Wandsworth", "code": "E09000032"}}, {"type": "Feature", "geometry": {"type": "Polygon", "coordinates": [[[-0.1741, 51.5383], [-0.1709, 51.5378], [-0.1694, 51.5386], [-0.1649, 51.5358], [-0.1604, 51.5373], [-0.1594, 51.5363], [-0.1527, 51.5375], [-0.1471, 51.525], [-0.1458, 51.5253], [-0.1452, 51.524], [-0.1434, 51.5245], [-0.137, 51.5189], [-0.1352, 51.5189], [-0.1325, 51.5167], [-0.1308, 51.5171], [-0.1296, 51.514], [-0.1276, 51.5127], [-0.1229, 51.5151], [-0.1195, 51.5145], [-0.1147, 51.516], [-0.1138, 51.5148], [-0.1116, 51.5153], [-0.1111, 51.5138], [-0.1125, 51.5127], [-0.1115, 51.5108], [-0.1195, 51.5091], [-0.1224, 51.5061], [-0.1254, 51.4916], [-0.1284, 51.4882], [-0.1325, 51.4857], [-0.1381, 51.4848], [-0.1491, 51.4862], [-0.15, 51.4855], [-0.1558, 51.4896], [-0.1558, 51.4915], [-0.1547, 51.492], [-0.156, 51.4932], [-0.155, 51.4938], [-0.1585, 51.5022], [-0.1654, 51.4987], [-0.1795, 51.4978], [-0.1803, 51.5015], [-0.1842, 51.5018], [-0.1879, 51.5102], [-0.1921, 51.5099], [-0.1929, 51.5118], [-0.194, 51.5117], [-0.1951, 51.515], [-0.1992, 51.5145], [-0.2008, 51.518], [-0.2037, 51.5206], [-0.2006, 51.5207], [-0.2016, 51.5227], [-0.204, 51.5235], [-0.206, 51.5259], [-0.2155, 51.5267], [-0.216, 51.5279], [-0.2153, 51.5314], [-0.203, 51.5329], [-0.1982, 51.5304], [-0.1978, 51.5279], [-0.1965, 51.5276], [-0.193, 51.532], [-0.1915, 51.5363], [-0.1887, 51.5345], [-0.1842, 51.5382], [-0.1801, 51.5396], [-0.1739, 51.5395], [-0.1741, 51.5383]]]}, "properties": {"slug": "westminster", "name": "Westminster", "code": "E09000033"}}]}